start=new Date('2022-06-03T00:00:00.000Z').valueOf();
sats=[{"REF_FRAME":"TEME","OBJECT_ID":"2020-074R","OBJECT_NAME":"STARLINK-1923","RA_OF_ASC_NODE":"17.7591","TLE_LINE2":"2 46754  53.0565  17.7591 0001679  72.6020 287.5153 15.06396308 89315","NORAD_CAT_ID":"46754","CENTER_NAME":"EARTH","EPOCH":"2022-06-02T21:39:59.831712","MEAN_ANOMALY":"287.5153","ECCENTRICITY":"0.00016790","MEAN_MOTION_DDOT":"0.0000000000000","DECAY_DATE":null,"OBJECT_TYPE":"PAYLOAD","ARG_OF_PERICENTER":"72.6020","MEAN_ELEMENT_THEORY":"SGP4","TIME_SYSTEM":"UTC","PERIAPSIS":"546.062","LAUNCH_DATE":"2020-10-24","RCS_SIZE":"LARGE","SEMIMAJOR_AXIS":"6925.360","CLASSIFICATION_TYPE":"U","APOAPSIS":"548.388","REV_AT_EPOCH":"8931","ELEMENT_SET_NO":"999","EPHEMERIS_TYPE":"0","SITE":"AFETR","FILE":"3477983","INCLINATION":"53.0565","TLE_LINE1":"1 46754U 20074R   22153.90277583 -.00001626  00000-0 -90261-4 0  9992","MEAN_MOTION_DOT":"-0.00001626","COUNTRY_CODE":"US","PERIOD":"95.592","MEAN_MOTION":"15.06396308","GP_ID":"205211200","BSTAR":"-0.00009026100000"},{"REV_AT_EPOCH":"8924","FILE":"3477983","SITE":"AFETR","EPHEMERIS_TYPE":"0","ELEMENT_SET_NO":"999","COUNTRY_CODE":"US","PERIOD":"95.592","MEAN_MOTION_DOT":"-0.00000762","TLE_LINE1":"1 46755U 20074S   22153.90784155 -.00000762  00000-0 -32220-4 0  9992","INCLINATION":"53.0562","GP_ID":"205211952","BSTAR":"-0.00003222000000","MEAN_MOTION":"15.06398488","TLE_LINE2":"2 46755  53.0562  22.7365 0002042  60.2930 299.8262 15.06398488 89246","NORAD_CAT_ID":"46755","RA_OF_ASC_NODE":"22.7365","OBJECT_NAME":"STARLINK-1924","OBJECT_ID":"2020-074S","REF_FRAME":"TEME","ECCENTRICITY":"0.00020420","MEAN_ANOMALY":"299.8262","CENTER_NAME":"EARTH","EPOCH":"2022-06-02T21:47:17.509920","TIME_SYSTEM":"UTC","DECAY_DATE":null,"OBJECT_TYPE":"PAYLOAD","MEAN_MOTION_DDOT":"0.0000000000000","ARG_OF_PERICENTER":"60.2930","MEAN_ELEMENT_THEORY":"SGP4","APOAPSIS":"548.632","RCS_SIZE":"LARGE","LAUNCH_DATE":"2020-10-24","SEMIMAJOR_AXIS":"6925.353","CLASSIFICATION_TYPE":"U","PERIAPSIS":"545.804"},{"FILE":"3477482","EPHEMERIS_TYPE":"0","SITE":"AFETR","ELEMENT_SET_NO":"999","REV_AT_EPOCH":"8911","GP_ID":"205176869","BSTAR":"0.00015451000000","MEAN_MOTION":"15.03959708","COUNTRY_CODE":"US","PERIOD":"95.747","MEAN_MOTION_DOT":"0.00001881","TLE_LINE1":"1 46756U 20074T   22153.05733105  .00001881  00000-0  15451-3 0  9995","INCLINATION":"53.0560","MEAN_ANOMALY":"294.2413","ECCENTRICITY":"0.00017960","CENTER_NAME":"EARTH","EPOCH":"2022-06-02T01:22:33.402720","TLE_LINE2":"2 46756  53.0560  26.7759 0001796  65.8763 294.2413 15.03959708 89114","NORAD_CAT_ID":"46756","RA_OF_ASC_NODE":"26.7759","OBJECT_NAME":"STARLINK-1925","OBJECT_ID":"2020-074T","REF_FRAME":"TEME","APOAPSIS":"555.948","RCS_SIZE":"LARGE","LAUNCH_DATE":"2020-10-24","SEMIMAJOR_AXIS":"6932.838","CLASSIFICATION_TYPE":"U","PERIAPSIS":"553.458","TIME_SYSTEM":"UTC","DECAY_DATE":null,"OBJECT_TYPE":"PAYLOAD","MEAN_MOTION_DDOT":"0.0000000000000","MEAN_ELEMENT_THEORY":"SGP4","ARG_OF_PERICENTER":"65.8763"},{"LAUNCH_DATE":"2020-10-24","RCS_SIZE":"LARGE","SEMIMAJOR_AXIS":"6932.887","CLASSIFICATION_TYPE":"U","APOAPSIS":"555.920","PERIAPSIS":"553.585","TIME_SYSTEM":"UTC","ARG_OF_PERICENTER":"68.9722","MEAN_ELEMENT_THEORY":"SGP4","DECAY_DATE":null,"OBJECT_TYPE":"PAYLOAD","MEAN_MOTION_DDOT":"0.0000000000000","MEAN_ANOMALY":"291.1446","ECCENTRICITY":"0.00016840","EPOCH":"2022-06-02T08:27:48.839040","CENTER_NAME":"EARTH","TLE_LINE2":"2 46757  53.0542  25.4544 0001684  68.9722 291.1446 15.03943546 89157","NORAD_CAT_ID":"46757","OBJECT_ID":"2020-074U","REF_FRAME":"TEME","RA_OF_ASC_NODE":"25.4544","OBJECT_NAME":"STARLINK-1926","MEAN_MOTION":"15.03943546","GP_ID":"205175619","BSTAR":"0.00000014502000","MEAN_MOTION_DOT":"-0.00000273","PERIOD":"95.748","COUNTRY_CODE":"US","INCLINATION":"53.0542","TLE_LINE1":"1 46757U 20074U   22153.35264860 -.00000273  00000-0  14502-6 0  9990","EPHEMERIS_TYPE":"0","SITE":"AFETR","FILE":"3477482","ELEMENT_SET_NO":"999","REV_AT_EPOCH":"8915"},{"APOAPSIS":"548.731","CLASSIFICATION_TYPE":"U","LAUNCH_DATE":"2020-10-24","RCS_SIZE":"LARGE","SEMIMAJOR_AXIS":"6925.345","PERIAPSIS":"545.690","TIME_SYSTEM":"UTC","OBJECT_TYPE":"PAYLOAD","DECAY_DATE":null,"MEAN_MOTION_DDOT":"0.0000000000000","MEAN_ELEMENT_THEORY":"SGP4","ARG_OF_PERICENTER":"54.2137","MEAN_ANOMALY":"305.9056","ECCENTRICITY":"0.00021960","CENTER_NAME":"EARTH","EPOCH":"2022-06-02T21:20:45.349728","NORAD_CAT_ID":"46758","TLE_LINE2":"2 46758  53.0557  22.8222 0002196  54.2137 305.9056 15.06401026 89241","OBJECT_NAME":"STARLINK-1928","RA_OF_ASC_NODE":"22.8222","OBJECT_ID":"2020-074V","REF_FRAME":"TEME","BSTAR":"0.00004974000000","GP_ID":"205210700","MEAN_MOTION":"15.06401026","COUNTRY_CODE":"US","PERIOD":"95.592","MEAN_MOTION_DOT":"0.00000459","TLE_LINE1":"1 46758U 20074V   22153.88941377  .00000459  00000-0  49740-4 0  9999","INCLINATION":"53.0557","FILE":"3477983","EPHEMERIS_TYPE":"0","SITE":"AFETR","ELEMENT_SET_NO":"999","REV_AT_EPOCH":"8924"},{"CENTER_NAME":"EARTH","EPOCH":"2022-06-02T16:27:29.199168","MEAN_ANOMALY":"293.9603","ECCENTRICITY":"0.00014080","RA_OF_ASC_NODE":"33.7443","OBJECT_NAME":"STARLINK-1833","REF_FRAME":"TEME","OBJECT_ID":"2020-074W","TLE_LINE2":"2 46759  53.0572  33.7443 0001408  66.1533 293.9603 15.06411188 89066","NORAD_CAT_ID":"46759","PERIAPSIS":"546.204","APOAPSIS":"548.154","SEMIMAJOR_AXIS":"6925.314","LAUNCH_DATE":"2020-10-24","RCS_SIZE":"LARGE","CLASSIFICATION_TYPE":"U","DECAY_DATE":null,"MEAN_MOTION_DDOT":"0.0000000000000","OBJECT_TYPE":"PAYLOAD","MEAN_ELEMENT_THEORY":"SGP4","ARG_OF_PERICENTER":"66.1533","TIME_SYSTEM":"UTC","ELEMENT_SET_NO":"999","FILE":"3477983","SITE":"AFETR","EPHEMERIS_TYPE":"0","REV_AT_EPOCH":"8906","BSTAR":"-0.00013859000000","GP_ID":"205211452","MEAN_MOTION":"15.06411188","TLE_LINE1":"1 46759U 20074W   22153.68575462 -.00002346  00000-0 -13859-3 0  9996","INCLINATION":"53.0572","COUNTRY_CODE":"US","PERIOD":"95.591","MEAN_MOTION_DOT":"-0.00002346"},{"OBJECT_NAME":"STARLINK-1896","RA_OF_ASC_NODE":"33.6935","REF_FRAME":"TEME","OBJECT_ID":"2020-074X","TLE_LINE2":"2 46760  53.0571  33.6935 0001715  53.8708 306.2439 15.06397015 89078","NORAD_CAT_ID":"46760","EPOCH":"2022-06-02T16:43:25.364640","CENTER_NAME":"EARTH","MEAN_ANOMALY":"306.2439","ECCENTRICITY":"0.00017150","MEAN_ELEMENT_THEORY":"SGP4","ARG_OF_PERICENTER":"53.8708","MEAN_MOTION_DDOT":"0.0000000000000","DECAY_DATE":null,"OBJECT_TYPE":"PAYLOAD","TIME_SYSTEM":"UTC","PERIAPSIS":"546.035","APOAPSIS":"548.410","LAUNCH_DATE":"2020-10-24","CLASSIFICATION_TYPE":"U","RCS_SIZE":"LARGE","SEMIMAJOR_AXIS":"6925.358","REV_AT_EPOCH":"8907","ELEMENT_SET_NO":"999","FILE":"3477983","EPHEMERIS_TYPE":"0","SITE":"AFETR","TLE_LINE1":"1 46760U 20074X   22153.69682135 -.00000908  00000-0 -42068-4 0  9992","INCLINATION":"53.0571","PERIOD":"95.592","COUNTRY_CODE":"US","MEAN_MOTION_DOT":"-0.00000908","GP_ID":"205211701","BSTAR":"-0.00004206800000","MEAN_MOTION":"15.06397015"},{"BSTAR":"0.00031642000000","GP_ID":"205210951","MEAN_MOTION":"15.42208908","TLE_LINE1":"1 46763U 20074AA  22153.84446311  .00013406  00000-0  31642-3 0  9996","INCLINATION":"53.0544","PERIOD":"93.373","COUNTRY_CODE":"US","MEAN_MOTION_DOT":"0.00013406","ELEMENT_SET_NO":"999","FILE":"3477983","EPHEMERIS_TYPE":"0","SITE":"AFETR","REV_AT_EPOCH":"8958","PERIAPSIS":"437.098","APOAPSIS":"442.089","LAUNCH_DATE":"2020-10-24","RCS_SIZE":"LARGE","CLASSIFICATION_TYPE":"U","SEMIMAJOR_AXIS":"6817.729","ARG_OF_PERICENTER":"18.0183","MEAN_ELEMENT_THEORY":"SGP4","DECAY_DATE":null,"OBJECT_TYPE":"PAYLOAD","MEAN_MOTION_DDOT":"0.0000000000000","TIME_SYSTEM":"UTC","EPOCH":"2022-06-02T20:16:01.612704","CENTER_NAME":"EARTH","ECCENTRICITY":"0.00036600","MEAN_ANOMALY":"342.0951","OBJECT_NAME":"STARLINK-1902","RA_OF_ASC_NODE":"358.5221","OBJECT_ID":"2020-074AA","REF_FRAME":"TEME","NORAD_CAT_ID":"46763","TLE_LINE2":"2 46763  53.0544 358.5221 0003660  18.0183 342.0951 15.42208908 89584"},{"ELEMENT_SET_NO":"999","FILE":"3477983","SITE":"AFETR","EPHEMERIS_TYPE":"0","REV_AT_EPOCH":"8909","BSTAR":"0.00006480400000","GP_ID":"205211201","MEAN_MOTION":"15.06395782","TLE_LINE1":"1 46764U 20074AB  22153.82214854  .00000684  00000-0  64804-4 0  9991","INCLINATION":"53.0573","COUNTRY_CODE":"US","PERIOD":"95.592","MEAN_MOTION_DOT":"0.00000684","CENTER_NAME":"EARTH","EPOCH":"2022-06-02T19:43:53.633856","MEAN_ANOMALY":"301.7437","ECCENTRICITY":"0.00016140","RA_OF_ASC_NODE":"33.1339","OBJECT_NAME":"STARLINK-1903","REF_FRAME":"TEME","OBJECT_ID":"2020-074AB","NORAD_CAT_ID":"46764","TLE_LINE2":"2 46764  53.0573  33.1339 0001614  58.3710 301.7437 15.06395782 89097","PERIAPSIS":"546.109","APOAPSIS":"548.344","RCS_SIZE":"LARGE","LAUNCH_DATE":"2020-10-24","CLASSIFICATION_TYPE":"U","SEMIMAJOR_AXIS":"6925.361","MEAN_MOTION_DDOT":"0.0000000000000","DECAY_DATE":null,"OBJECT_TYPE":"PAYLOAD","MEAN_ELEMENT_THEORY":"SGP4","ARG_OF_PERICENTER":"58.3710","TIME_SYSTEM":"UTC"},{"MEAN_MOTION_DDOT":"0.0000000000000","DECAY_DATE":null,"OBJECT_TYPE":"PAYLOAD","ARG_OF_PERICENTER":"68.5101","MEAN_ELEMENT_THEORY":"SGP4","TIME_SYSTEM":"UTC","PERIAPSIS":"545.827","CLASSIFICATION_TYPE":"U","LAUNCH_DATE":"2020-10-24","RCS_SIZE":"LARGE","SEMIMAJOR_AXIS":"6925.337","APOAPSIS":"548.577","OBJECT_ID":"2020-074AC","REF_FRAME":"TEME","RA_OF_ASC_NODE":"33.7770","OBJECT_NAME":"STARLINK-1906","NORAD_CAT_ID":"46765","TLE_LINE2":"2 46765  53.0549  33.7770 0001985  68.5101 291.6099 15.06403750 89067","CENTER_NAME":"EARTH","EPOCH":"2022-06-02T16:16:53.047200","MEAN_ANOMALY":"291.6099","ECCENTRICITY":"0.00019850","INCLINATION":"53.0549","TLE_LINE1":"1 46765U 20074AC  22153.67839175 -.00000680  00000-0 -26754-4 0  9994","MEAN_MOTION_DOT":"-0.00000680","COUNTRY_CODE":"US","PERIOD":"95.592","MEAN_MOTION":"15.06403750","BSTAR":"-0.00002675400000","GP_ID":"205211953","REV_AT_EPOCH":"8906","ELEMENT_SET_NO":"999","SITE":"AFETR","EPHEMERIS_TYPE":"0","FILE":"3477983"}];
